Title,Address,Latitude,Longitude,Found Address,Match Quality,Source
Trinity College,"300 Summit St, Hartford CT 06106",41.7486373,-72.6928403,"300 Summit St, Hartford, CT 06106, USA",Match,Google
Capital Community College,950 Main St Hartford CT 06103,41.7681699,-72.6730624,"950 Main St, Hartford, CT 06103, USA",Match,Google
University of Hartford,"200 Bloomfield Ave, West Hartford CT 06117",41.7950017,-72.7154937,"200 Bloomfield Ave, West Hartford, CT 06117, USA",Match,Google
Charter Oak State College,"55 Manafort Drive, New Britain CT 06053",41.6882257,-72.7679837,"55 Paul Manafort Dr, New Britain, CT 06053, USA",Partial Match,Google
Hartford Seminary,"77 Sherman St, Hartford CT 06053",41.7698571,-72.7077092,"77 Sherman St, Hartford, CT 06105, USA",Partial Match,Google
St. Thomas Seminary,"467 Bloomfield Ave, Bloomfield CT 06002",41.807201,-72.7333619,"467 Bloomfield Ave, Bloomfield, CT 06002, USA",Match,Google
University of Connecticut-Hartford,"14 Prospect St, Hartford CT 06103",41.762617,-72.6727081,"14 Prospect St, Hartford, CT 06103, USA",Match,Google
Central Connecticut State University,"1615 Stanley St, New Britain CT 06050",41.6908213,-72.7709932,"1615 Stanley St, New Britain, CT 06051, USA",Partial Match,Google
Goodwin College,"1 Riverside Drive, East Hartford CT 06118",41.7428246,-72.6404704,"1 Riverside Dr, East Hartford, CT 06118, USA",Match,Google
Manchester Community College,"Great Path, Manchester CT 06040",41.7622906,-72.5670043,"Great Path, Manchester, CT 06040, USA",Match,Google
University of St. Joseph,"1678 Asylum Ave, West Hartford CT 06117",41.7809411,-72.7284173,"1678 Asylum Ave, West Hartford, CT 06117, USA",Match,Google
Capital = Abu Dhabi; Population= 603500,Vereinigte Arabische Emirate,AE,603500,24.46667,54.36667
Capital = Abuja; Population= 1568900,Nigeria,NG,1568900,9.05785,7.49508
Capital = Accra; Population= 1963300,Ghana,GH,1963300,5.55602,-0.1969
Capital = Adamstown; Population= 100,Pitcairninseln,PN,100,-25.066397,-130.100197
Capital = Addis Ababa; Population= 2757700,Äthiopien,ET,2757700,9.02497,38.74689
Capital = Algiers; Population= 1977700,Algerien,DZ,1977700,36.7525,3.04197
Capital = Alofi; Population= 600,Niue,NU,600,-19.05952,-169.91867
Capital = Amman; Population= 1919000,Jordanien,JO,1919000,31.95522,35.94503
Capital = Amsterdam; Population= 741600,Niederlande,NL,741600,52.37403,4.88969
Capital = Andorra la Vella; Population= 20400,Andorra,AD,20400,42.50779,1.52109
Capital = Ankara; Population= 4338600,Türkei,TR,4338600,39.91987,32.85427
Capital = Antananarivo; Population= 1816000,Madagaskar,MG,1816000,-18.91368,47.53613
Capital = Apia; Population= 40400,Samoa,WS,40400,-13.83333,-171.76666
Capital = Ashgabat; Population= 727700,Turkmenistan,TM,727700,37.95,58.38333
Capital = Asmara; Population= 563900,Eritrea,ER,563900,15.33805,38.93184
Capital = Astana; Population= 345600,Kasachstan,KZ,345600,51.1801,71.44598
Capital = Asunción; Population= 1482200,Paraguay,PY,1482200,-25.30066,-57.63591
Capital = Athens; Population= 664000,Griechenland,GR,664000,37.97945,23.71622
Capital = Avarua; Population= 13400,Cookinseln,CK,13400,-21.20778,-159.775
Capital = Baghdad; Population= 5514000,Irak,IQ,5514000,33.34058,44.40088
Capital = Baku; Population= 1116500,Aserbaidschan,AZ,1116500,40.37767,49.89201
Capital = Bamako; Population= 1297300,Mali,ML,1297300,12.65,-8
Capital = Bandar Seri Begawan; Population= 64400,Brunei,BN,64400,4.94029,114.94806
Capital = Bangkok; Population= 5104500,Thailand,TH,5104500,13.75398,100.50144
Capital = Bangui; Population= 542400,Zentralafrikanische Republik,CF,542400,4.36122,18.55496
Capital = Banjul; Population= 34600,Gambia,GM,34600,13.45274,-16.57803
Capital = Basse-Terre; Population= 11500,Guadeloupe,GP,11500,15.99854,-61.72548
Capital = Basseterre; Population= 12900,St. Kitts und Nevis,KN,12900,17.29484,-62.7261
Capital = Beirut; Population= 2060400,Libanon,LB,2060400,33.88894,35.49442
Capital = Belgrade; Population= 1273700,Serbien,RS,1273700,44.80401,20.46513
Capital = Belmopan; Population= 13400,Belize,BZ,13400,17.25,-88.76667
Capital = Berlin; Population= 3419700,Deutschland,DE,3419700,52.52437,13.41053
Capital = Bern; Population= 121600,Schweiz,CH,121600,46.94809,7.44744
Capital = Bishkek; Population= 900000,Kirgisistan,KG,900000,42.87,74.59
Capital = Bissau; Population= 388000,Guinea-Bissau,GW,388000,11.86357,-15.59767
Capital = Bogotá; Population= 6840200,Kolumbien,CO,6840200,4.60971,-74.08175
Capital = Brades; Population= 1000,Montserrat,MS,1000,16.79183,-62.21058
Capital = Brasília; Population= 2789800,Brasilien,BR,2789800,-15.77972,-47.92972
Capital = Bratislava; Population= 423700,Slowakei,SK,423700,48.14816,17.10674
Capital = Brazzaville; Population= 1115800,Kongo,CG,1115800,-4.26613,15.28318
Capital = Bridgetown; Population= 98500,Barbados,BB,98500,13.1,-59.61667
Capital = Brussels; Population= 1138900,Belgien,BE,1138900,50.85045,4.34878
Capital = Budapest; Population= 1741000,Ungarn,HU,1741000,47.49801,19.03991
Capital = Buenos Aires; Population= 2890200,Argentinien,AR,2890200,-34.61315,-58.37723
Capital = Bujumbura; Population= 331700,Burundi,BI,331700,-3.3822,29.3644
Capital = Bucharest; Population= 1883400,Rumänien,RO,1883400,44.43225,26.10626
Capital = Canberra; Population= 367800,Australien,AU,367800,-35.28346,149.12807
Capital = Caracas; Population= 5808900,Venezuela,VE,5808900,10.48801,-66.87919
Capital = Castries; Population= 20000,St. Lucia,LC,20000,13.9957,-61.00614
Capital = Cayenne; Population= 61600,Französisch-Guayana,GF,61600,4.93333,-52.33333
Capital = Charlotte Amalie; Population= 20000,Jungferninseln (US),VI,20000,18.3419,-64.9307
Capital = Chisinau; Population= 636000,Moldawien,MD,636000,47.00556,28.8575
Capital = Cockburn Town; Population= 3700,Turks und Caicosinseln,TC,3700,21.46122,-71.14188
Capital = Colombo; Population= 648000,Sri Lanka,LK,648000,6.93194,79.84778
Capital = Conakry; Population= 1767200,Guinea,GN,1767200,9.53795,-13.67729
Capital = Concelho de Macau; Population= 520400,Macau,MO,520400,22.20056,113.54611
Capital = Copenhagen; Population= 1153600,Dänemark,DK,1153600,55.67594,12.56553
Capital = Dakar; Population= 2476400,Senegal,SN,2476400,14.6937,-17.44406
Capital = Damascus; Population= 1834700,Syrien,SY,1834700,33.5102,36.29128
Capital = Dhaka; Population= 6725000,Bangladesch,BD,6725000,23.7104,90.40744
Capital = Dili; Population= 150000,Osttimor,TL,150000,-8.55861,125.57361
Capital = Djibouti; Population= 623900,Dschibuti,DJ,623900,11.58901,43.14503
Capital = Dodoma; Population= 180500,Tansania,TZ,180500,-6.17221,35.73947
Capital = Doha; Population= 344900,Katar,QA,344900,25.27932,51.52245
Capital = Douglas; Population= 26200,Insel Man,IM,26200,54.15,-4.48333
Capital = Dublin; Population= 1024000,Irland,IE,1024000,53.33306,-6.24889
Capital = Dushanbe; Population= 679400,Tadschikistan,TJ,679400,38.53575,68.77905
Capital = El Aaiún; Population= 196300,Westsahara,EH,196300,27.1418,-13.18797
Capital = Flying Fish Cove; Population= 500,Weihnachtsinsel,CX,500,-10.42172,105.67912
Capital = Fort-de-France; Population= 90000,Martinique,MQ,90000,14.60892,-61.07334
Capital = Freetown; Population= 802600,Sierra Leone,SL,802600,8.484,-13.22994
Capital = Funafuti; Population= 4500,Tuvalu,TV,4500,-8.52425,179.19417
Capital = Gaborone; Population= 208400,Botswana,BW,208400,-24.65451,25.90859
Capital = George Town; Population= 29400,Kaimaninseln,KY,29400,19.2866,-81.37436
Capital = Georgetown; Population= 235000,Guyana,GY,235000,6.80448,-58.15527
Capital = Gibraltar; Population= 26500,Gibraltar,GI,26500,36.14474,-5.35257
Capital = Guatemala City; Population= 994900,Guatemala,GT,994900,14.64072,-90.51327
Capital = Gustavia; Population= 6000,Sankt Bartholomäus,BL,6000,17.89618,-62.84978
Capital = Hagåtña; Population= 1100,Guam,GU,1100,13.47567,144.74886
Capital = Hamilton; Population= 900,Bermuda,BM,900,32.2949,-64.78303
Capital = Hanoi; Population= 6448800,Vietnam,VN,6448800,21.0245,105.84117
Capital = Harare; Population= 1542800,Simbabwe,ZW,1542800,-17.82772,31.05337
Capital = Havana; Population= 2106100,Kuba,CU,2106100,23.13302,-82.38304
Capital = Helsinki; Population= 558500,Finnland,FI,558500,60.16952,24.93545
Capital = Hong Kong; Population= 7097600,Hongkong,HK,7097600,22.28552,114.15769
Capital = Honiara; Population= 56300,Salomonen,SB,56300,-9.43333,159.95
Capital = Islamabad; Population= 601600,Pakistan,PK,601600,33.72148,73.04329
Capital = Jakarta; Population= 9588200,Indonesien,ID,9588200,-6.21462,106.84513
Capital =  Ascension and Tristan da Cunha; Population= -5.71675,600,-15.93872,-5.71675,,
Capital = Yaoundé; Population= 1299500,Kamerun,CM,1299500,3.86667,11.51667
Capital = Yerevan; Population= 1093500,Armenien,AM,1093500,40.18111,44.51361
Capital = Jerusalem; Population= 801000,Israel,IL,801000,31.76904,35.21633
Capital = Juba; Population= 300000,Südsudan,SS,300000,4.85165,31.58247
Capital = Kabul; Population= 3290000,Afghanistan,AF,3290000,34.52813,69.17233
Capital = Cairo; Population= 7734600,Ägypten,EG,7734600,30.06263,31.24967
Capital = Kampala; Population= 1353200,Uganda,UG,1353200,0.31628,32.58219
Capital = Kathmandu; Population= 1442300,Nepal,NP,1442300,27.70169,85.3206
Capital = Khartoum; Population= 2682500,Sudan,SD,2682500,15.55177,32.53241
Capital = Kiev; Population= 2797600,Ukraine,UA,2797600,50.45466,30.5238
Capital = Kigali; Population= 1168600,Ruanda,RW,1168600,-1.94995,30.05885
Capital = King Edward Point; Population= 0,Südgeorgien und die Südlichen Sandwichinseln,GS,0,-54.283349,-36.494533
Capital = Kingston; Population= 937700,Jamaika,JM,937700,17.99702,-76.79358
Capital = Kingston; Population= 900,Norfolkinsel,NF,900,-29.05459,167.96628
Capital = Kingstown; Population= 24500,St. Vincent und die Grenadinen,VC,24500,13.15872,-61.22475
Capital = Kinshasa; Population= 9463800,Demokratische Republik Kongo,CD,9463800,-4.32758,15.31357
Capital = Kuala Lumpur; Population= 1454000,Malaysia,MY,1454000,3.1412,101.68653
Capital = Kuwait City; Population= 60100,Kuwait,KW,60100,29.36972,47.97833
Capital = Libreville; Population= 578200,Gabun,GA,578200,0.39241,9.45356
Capital = Lilongwe; Population= 646800,Malawi,MW,646800,-13.96692,33.78725
Capital = Lima; Population= 7605800,Peru,PE,7605800,-12.04318,-77.02824
Capital = Lisbon; Population= 517800,Portugal,PT,517800,38.71667,-9.13333
Capital = Ljubljana; Population= 272200,Slowenien,SI,272200,46.05108,14.50513
Capital = Lomé; Population= 749700,Togo,TG,749700,6.13748,1.21227
Capital = London; Population= 7556900,Vereinigtes Königreich,GB,7556900,51.50853,-0.12574
Capital = Longyearbyen; Population= 2100,Svalbard und Jan Mayen,SJ,2100,78.22334,15.64689
Capital = Luanda; Population= 2776200,Angola,AO,2776200,-8.83682,13.23432
Capital = Lusaka; Population= 1413000,Sambia,ZM,1413000,-15.40669,28.28713
Capital = Luxembourg; Population= 76700,Luxemburg,LU,76700,49.61167,6.13
Capital = Madrid; Population= 3255900,Spanien,ES,3255900,40.4165,-3.70256
Capital = Majuro; Population= 25400,Marshallinseln,MH,25400,7.08971,171.38027
Capital = Malabo; Population= 156000,Äquatorialguinea,GQ,156000,3.75,8.78333
Capital = Male; Population= 103700,Malediven,MV,103700,4.1748,73.50888
Capital = Mamoudzou; Population= 54800,Mayotte,YT,54800,-12.78234,45.22878
Capital = Managua; Population= 973100,Nicaragua,NI,973100,12.13282,-86.2504
Capital = Manama; Population= 147100,Bahrain,BH,147100,26.21536,50.5832
Capital = Manila; Population= 1652200,Philippinen,PH,1652200,14.6042,120.9822
Capital = Maputo; Population= 1191600,Mosambik,MZ,1191600,-25.96553,32.58322
Capital = Mariehamn; Population= 10700,Ålandinseln,AX,10700,60.09726,19.93481
Capital = Maseru; Population= 118400,Lesotho,LS,118400,-29.31667,27.48333
Capital = Mata-Utu; Population= 1200,Wallis und Futuna,WF,1200,-13.28163,-176.17453
Capital = Mbabane; Population= 76200,Swasiland,SZ,76200,-26.31667,31.13333
Capital = Mexico City; Population= 8851100,Mexiko,MX,8851100,19.42847,-99.12766
Capital = Minsk; Population= 1921900,Belarus,BY,1921900,53.9,27.56667
Capital = Mogadishu; Population= 1353000,Somalia,SO,1353000,2.03711,45.34375
Capital = Monaco; Population= 33000,Monaco,MC,33000,43.73333,7.41667
Capital = Monrovia; Population= 939500,Liberia,LR,939500,6.30054,-10.7969
Capital = Montevideo; Population= 1338400,Uruguay,UY,1338400,-34.90328,-56.18816
Capital = Moroni; Population= 42900,Komoren,KM,42900,-11.70216,43.25506
Capital = Moscow; Population= 10381200,Russland,RU,10381200,55.75222,37.61556
Capital = Muscat; Population= 797000,Oman,OM,797000,23.61387,58.5922
Capital = N'Djamena; Population= 1092000,Tschad,TD,1092000,12.10672,15.0444
Capital = Nairobi; Population= 2750500,Kenia,KE,2750500,-1.28333,36.81667
Capital = Nassau; Population= 227900,Bahamas,BS,227900,25.05823,-77.34306
Capital = Nay Pyi Taw; Population= 925000,Myanmar,MM,925000,19.745,96.12972
Capital = New Delhi; Population= 317800,Indien,IN,317800,28.63576,77.22445
Capital = Niamey; Population= 774200,Niger,NE,774200,13.51366,2.1098
Capital = Nicosia; Population= 200500,Zypern,CY,200500,35.17531,33.3642
Capital = Nouakchott; Population= 661400,Mauretanien,MR,661400,18.08581,-15.9785
Capital = Nouméa; Population= 93100,Neukaledonien,NC,93100,-22.27631,166.4572
Capital = Nukunonu; Population= 400,Tokelau,TK,400,-9.20045,-171.84804
Capital = Nuku‘alofa; Population= 22400,Tonga,TO,22400,-21.13938,-175.2018
Capital = Nuuk; Population= 14800,Grönland,GL,14800,64.18347,-51.72157
Capital = Oranjestad; Population= 30000,Aruba,AW,30000,12.52398,-70.02703
Capital = Oslo; Population= 580000,Norwegen,NO,580000,59.91273,10.74609
Capital = Ottawa; Population= 812100,Kanada,CA,812100,45.41117,-75.69812
Capital = Ouagadougou; Population= 1086500,Burkina Faso,BF,1086500,12.36566,-1.53388
Capital = Pago Pago; Population= 11500,Amerikanisch Samoa,AS,11500,-14.27806,-170.7025
Capital = Panamá; Population= 408200,Panama,PA,408200,8.9936,-79.51973
Capital = Papeete; Population= 26400,Französisch-Polynesien,PF,26400,-17.53733,-149.5665
Capital = Paramaribo; Population= 223800,Suriname,SR,223800,5.86638,-55.16682
Capital = Paris; Population= 2138600,Frankreich,FR,2138600,48.85341,2.3488
Capital = Beijing; Population= 11716600,China,CN,11716600,39.9075,116.39723
Capital = Philipsburg; Population= 1400,Sint Maarten,SX,1400,18.025415,-63.050516
Capital = Phnom Penh; Population= 1501700,Kambodscha,KH,1501700,11.56245,104.91601
Capital = Pyongyang; Population= 4138200,Nordkorea,KP,4138200,39.03385,125.75432
Capital = Podgorica; Population= 136500,Montenegro,ME,136500,42.44111,19.26361
Capital = Port Louis; Population= 155200,Mauritius,MU,155200,-20.16194,57.49889
Capital = Port Moresby; Population= 283700,Papua-Neuguinea,PG,283700,-9.44314,147.17972
Capital = Port-au-Prince; Population= 1275000,Haiti,HT,1275000,18.53917,-72.335
Capital = Port-aux-Français; Population= 0,Französische Süd- und Antarktisgebiete,TF,0,-49.35,70.21667
Capital = Port-of-Spain; Population= 49000,Trinidad und Tobago,TT,49000,10.66668,-61.51889
Capital = Port-Vila; Population= 35900,Vanuatu,VU,35900,-17.73381,168.32188
Capital = Porto-Novo; Population= 234200,Benin,BJ,234200,6.49646,2.60359
Capital = Prague; Population= 1243200,Tschechien,CZ,1243200,50.08804,14.42076
Capital = Praia; Population= 113400,Kap Verde,CV,113400,14.93152,-23.51254
Capital = Pretoria; Population= 1619400,Südafrika,ZA,1619400,-25.74486,28.18783
Capital = Pristina; Population= 550000,Kosovo,XK,550000,42.67272,21.16688
Capital = Quito; Population= 2239200,Ecuador,EC,2239200,-0.22985,-78.52495
Capital = Rabat; Population= 1655800,Marokko,MA,1655800,34.01325,-6.83255
Capital = Ramallah; Population= 24600,Palästina,PS,24600,31.89964,35.20422
Capital = Reykjavík; Population= 118900,Island,IS,118900,64.13548,-21.89541
Capital = Riyadh; Population= 5700000,Saudi-Arabien,SA,5700000,24.68773,46.72185
Capital = Riga; Population= 742600,Lettland,LV,742600,56.946,24.10589
Capital = Road Town; Population= 8400,Jungferninseln (UK),VG,8400,18.42693,-64.62079
Capital = Rome; Population= 2863300,Italien,IT,2863300,41.89193,12.51133
Capital = Roseau; Population= 16600,Dominica,DM,16600,15.30174,-61.38808
Capital = Saint George's; Population= 7500,Grenada,GD,7500,12.05644,-61.74849
Capital = Saint Helier; Population= 28000,Jersey,JE,28000,49.18804,-2.10491
Capital = Saint John’s; Population= 24200,Antigua und Barbuda,AG,24200,17.11717,-61.84573
Capital = Saint Peter Port; Population= 16500,Guernsey,GG,16500,49.45981,-2.53527
Capital = Saint-Denis; Population= 137200,Réunion,RE,137200,-20.88231,55.4504
Capital = Saint-Pierre; Population= 6200,St. Pierre und Miquelon,PM,6200,46.77914,-56.1773
Capital = Saipan; Population= 48200,Nördliche Marianen,MP,48200,15.21233,145.7545
Capital = San José; Population= 335000,Costa Rica,CR,335000,9.93333,-84.08333
Capital = San Juan; Population= 418100,Puerto Rico,PR,418100,18.46633,-66.10572
Capital = San Marino; Population= 4500,San Marino,SM,4500,43.93667,12.44639
Capital = San Salvador; Population= 526000,El Salvador,SV,526000,13.68935,-89.18718
Capital = Sanaa; Population= 1937500,Jemen,YE,1937500,15.35472,44.20667
Capital = Santiago; Population= 4837300,Chile,CL,4837300,-33.45694,-70.64827
Capital = Santo Domingo; Population= 2987000,Dominikanische Republik,DO,2987000,18.50012,-69.98857
Capital = São Tomé; Population= 53300,São Tomé und Príncipe,ST,53300,0.33654,6.72732
Capital = Sarajevo; Population= 696700,Bosnien und Herzegowina,BA,696700,43.84864,18.35644
Capital = Seoul; Population= 10349300,Südkorea,KR,10349300,37.566,126.9784
Capital = Singapore; Population= 5399200,Singapur,SG,5399200,1.28967,103.85007
Capital = Skopje; Population= 474900,Mazedonien,MK,474900,41.99646,21.43141
Capital = Sofia; Population= 1271700,Bulgarien,BG,1271700,42.69751,23.32415
Capital = Stanley; Population= 2200,Falklandinseln,FK,2200,-51.7,-57.85
Capital = Stockholm; Population= 1253300,Schweden,SE,1253300,59.33258,18.0649
Capital = Sucre; Population= 224800,Bolivien,BO,224800,-19.03332,-65.26274
Capital = Suva; Population= 77400,Fidschi,FJ,77400,-18.14161,178.44149
Capital = Taipei; Population= 2693700,Taiwan,TW,2693700,25.04776,121.53185
Capital = Tallinn; Population= 394000,Estland,EE,394000,59.43696,24.75353
Capital = Tarawa; Population= 40300,Kiribati,KI,40300,1.3278,172.97696
Capital = Tashkent; Population= 2140500,Usbekistan,UZ,2140500,41.26465,69.21627
Capital = Tegucigalpa; Population= 850800,Honduras,HN,850800,14.0818,-87.20681
Capital = Tehran; Population= 7153300,Iran,IR,7153300,35.69439,51.42151
Capital = The Valley; Population= 2000,Anguilla,AI,2000,18.21704,-63.05783
Capital = Thimphu; Population= 98700,Bhutan,BT,98700,27.46609,89.64191
Capital = Tórshavn; Population= 13200,Färöer-Inseln,FO,13200,62.00973,-6.77164
Capital = Tbilisi; Population= 1162400,Georgien,GE,1162400,41.69411,44.83368
Capital = Tirana; Population= 374800,Albanien,AL,374800,41.3275,19.81889
Capital = Tokyo; Population= 8336600,Japan,JP,8336600,35.6895,139.69171
Capital = Tripoli; Population= 1780000,Libyen,LY,1780000,32.87519,13.18746
Capital = Tunis; Population= 693200,Tunesien,TN,693200,36.81897,10.16579
Capital = Ulaanbaatar; Population= 844800,Mongolei,MN,844800,47.90771,106.88324
Capital = Vaduz; Population= 5200,Liechtenstein,LI,5200,47.14151,9.52154
Capital = Valletta; Population= 6800,Malta,MT,6800,35.89972,14.51472
Capital = Victoria; Population= 22900,Seychellen,SC,22900,-4.61667,55.45
Capital = Vientiane; Population= 196700,Laos,LA,196700,17.96667,102.6
Capital = Vilnius; Population= 542400,Litauen,LT,542400,54.68916,25.2798
Capital = Warsaw; Population= 1702100,Polen,PL,1702100,52.22977,21.01178
Capital =  D.C.; Population= 38.89511,US,601700,38.89511,-77.03637,
Capital = Wellington; Population= 381900,Neuseeland,NZ,381900,-41.28664,174.77557
Capital = West Island; Population= 100,Kokosinseln,CC,100,-12.14603,96.822424
Capital = Vienna; Population= 1691500,Österreich,AT,1691500,48.20849,16.37208
Capital = Willemstad; Population= 125000,Niederländische Antillen,AN,125000,12.133649,-68.930873
Capital = Windhoek; Population= 268100,Namibia,NA,268100,-22.55941,17.08323
Capital = Yamoussoukro; Population= 194500,Elfenbeinküste,CI,194500,6.82055,-5.27674
Capital = Yaren; Population= 1100,Nauru,NR,1100,-0.55085,166.9252
Capital = Zagreb; Population= 699000,Kroatien,HR,699000,45.81444,15.97798
